2026-027E               
1 67750U 26027E   26047.27164487  .00009545  00000+0  47637-3 0  9992
2 67750  97.4888 176.5251 0008734 287.4305  72.5973 15.17684455   615
2026-027F               
1 67751U 26027F   26047.27152490  .00015571  00000+0  77270-3 0  9996
2 67751  97.4890 176.5253 0009792 285.8270  74.1884 15.17753055   611
2026-027G               
1 67752U 26027G   26047.27142875  .00009985  00000+0  49692-3 0  9992
2 67752  97.4883 176.5250 0009021 289.2385  70.7872 15.17769083   618
2026-027H               
1 67753U 26027H   26047.29933322  .00395472  22912-5  76711-3 0  9993
2 67753  97.5140 176.8340 0272676 324.7406  33.6070 15.58397372   639
2026-027J               
1 67754U 26027J   26047.29514654  .00844626  23287-5  15713-2 0  9997
2 67754  97.5123 176.8409 0259553 324.4239  33.9948 15.61728435   579
2026-028A               
1 67756U 26028A   26047.29077050 -.00000244  00000+0  00000+0 0  9997
2 67756   0.5268 287.9889 0001825 248.5746 183.4121  1.01589916    41
CREW DRAGON 12          
1 67796U 26031A   26047.21491617  .00010277  00000+0  19660-3 0  9998
2 67796  51.6319 178.5071 0011017 103.7643 256.4573 15.48638586   427
