CCSDS_OMM_VERS = 2.0
CREATION_DATE  = 
ORIGINATOR     = 

OBJECT_NAME    = 2026-027E
OBJECT_ID      = 2026-027E
CENTER_NAME    = EARTH
REF_FRAME      = TEME
TIME_SYSTEM    = UTC
MEAN_ELEMENT_THEORY = SGP/SGP4

EPOCH          = 2026-02-16T06:31:10.116768
MEAN_MOTION    = 15.17684455
ECCENTRICITY   = .00087348
INCLINATION    = 97.4888
RA_OF_ASC_NODE = 176.5251
ARG_OF_PERICENTER = 287.4305
MEAN_ANOMALY   = 72.5973

EPHEMERIS_TYPE = 0
CLASSIFICATION_TYPE = U
NORAD_CAT_ID   = 67750
ELEMENT_SET_NO = 999
REV_AT_EPOCH   = 61
BSTAR          = .4763653E-3
MEAN_MOTION_DOT = .9545E-4
MEAN_MOTION_DDOT = 0

CCSDS_OMM_VERS = 2.0
CREATION_DATE  = 
ORIGINATOR     = 

OBJECT_NAME    = 2026-027F
OBJECT_ID      = 2026-027F
CENTER_NAME    = EARTH
REF_FRAME      = TEME
TIME_SYSTEM    = UTC
MEAN_ELEMENT_THEORY = SGP/SGP4

EPOCH          = 2026-02-16T06:30:59.751360
MEAN_MOTION    = 15.17753055
ECCENTRICITY   = .00097924
INCLINATION    = 97.4890
RA_OF_ASC_NODE = 176.5253
ARG_OF_PERICENTER = 285.8270
MEAN_ANOMALY   = 74.1884

EPHEMERIS_TYPE = 0
CLASSIFICATION_TYPE = U
NORAD_CAT_ID   = 67751
ELEMENT_SET_NO = 999
REV_AT_EPOCH   = 61
BSTAR          = .772698E-3
MEAN_MOTION_DOT = .15571E-3
MEAN_MOTION_DDOT = 0

CCSDS_OMM_VERS = 2.0
CREATION_DATE  = 
ORIGINATOR     = 

OBJECT_NAME    = 2026-027G
OBJECT_ID      = 2026-027G
CENTER_NAME    = EARTH
REF_FRAME      = TEME
TIME_SYSTEM    = UTC
MEAN_ELEMENT_THEORY = SGP/SGP4

EPOCH          = 2026-02-16T06:30:51.444000
MEAN_MOTION    = 15.17769083
ECCENTRICITY   = .00090218
INCLINATION    = 97.4883
RA_OF_ASC_NODE = 176.5250
ARG_OF_PERICENTER = 289.2385
MEAN_ANOMALY   = 70.7872

EPHEMERIS_TYPE = 0
CLASSIFICATION_TYPE = U
NORAD_CAT_ID   = 67752
ELEMENT_SET_NO = 999
REV_AT_EPOCH   = 61
BSTAR          = .49692231E-3
MEAN_MOTION_DOT = .9985E-4
MEAN_MOTION_DDOT = 0

CCSDS_OMM_VERS = 2.0
CREATION_DATE  = 
ORIGINATOR     = 

OBJECT_NAME    = 2026-027H
OBJECT_ID      = 2026-027H
CENTER_NAME    = EARTH
REF_FRAME      = TEME
TIME_SYSTEM    = UTC
MEAN_ELEMENT_THEORY = SGP/SGP4

EPOCH          = 2026-02-16T07:11:02.390208
MEAN_MOTION    = 15.58397372
ECCENTRICITY   = .02726767
INCLINATION    = 97.5140
RA_OF_ASC_NODE = 176.8340
ARG_OF_PERICENTER = 324.7406
MEAN_ANOMALY   = 33.6070

EPHEMERIS_TYPE = 0
CLASSIFICATION_TYPE = U
NORAD_CAT_ID   = 67753
ELEMENT_SET_NO = 999
REV_AT_EPOCH   = 63
BSTAR          = .76710867E-3
MEAN_MOTION_DOT = .395472E-2
MEAN_MOTION_DDOT = .2291205E-5

CCSDS_OMM_VERS = 2.0
CREATION_DATE  = 
ORIGINATOR     = 

OBJECT_NAME    = 2026-027J
OBJECT_ID      = 2026-027J
CENTER_NAME    = EARTH
REF_FRAME      = TEME
TIME_SYSTEM    = UTC
MEAN_ELEMENT_THEORY = SGP/SGP4

EPOCH          = 2026-02-16T07:05:00.661056
MEAN_MOTION    = 15.61728435
ECCENTRICITY   = .02595533
INCLINATION    = 97.5123
RA_OF_ASC_NODE = 176.8409
ARG_OF_PERICENTER = 324.4239
MEAN_ANOMALY   = 33.9948

EPHEMERIS_TYPE = 0
CLASSIFICATION_TYPE = U
NORAD_CAT_ID   = 67754
ELEMENT_SET_NO = 999
REV_AT_EPOCH   = 57
BSTAR          = .15712931E-2
MEAN_MOTION_DOT = .844626E-2
MEAN_MOTION_DDOT = .2328725E-5

CCSDS_OMM_VERS = 2.0
CREATION_DATE  = 
ORIGINATOR     = 

OBJECT_NAME    = 2026-028A
OBJECT_ID      = 2026-028A
CENTER_NAME    = EARTH
REF_FRAME      = TEME
TIME_SYSTEM    = UTC
MEAN_ELEMENT_THEORY = SGP/SGP4

EPOCH          = 2026-02-16T06:58:42.571200
MEAN_MOTION    = 1.01589916
ECCENTRICITY   = .0001825
INCLINATION    = 0.5268
RA_OF_ASC_NODE = 287.9889
ARG_OF_PERICENTER = 248.5746
MEAN_ANOMALY   = 183.4121

EPHEMERIS_TYPE = 0
CLASSIFICATION_TYPE = U
NORAD_CAT_ID   = 67756
ELEMENT_SET_NO = 999
REV_AT_EPOCH   = 4
BSTAR          = 0
MEAN_MOTION_DOT = -.244E-5
MEAN_MOTION_DDOT = 0

CCSDS_OMM_VERS = 2.0
CREATION_DATE  = 
ORIGINATOR     = 

OBJECT_NAME    = CREW DRAGON 12
OBJECT_ID      = 2026-031A
CENTER_NAME    = EARTH
REF_FRAME      = TEME
TIME_SYSTEM    = UTC
MEAN_ELEMENT_THEORY = SGP/SGP4

EPOCH          = 2026-02-16T05:09:28.757088
MEAN_MOTION    = 15.48638586
ECCENTRICITY   = .00110177
INCLINATION    = 51.6319
RA_OF_ASC_NODE = 178.5071
ARG_OF_PERICENTER = 103.7643
MEAN_ANOMALY   = 256.4573

EPHEMERIS_TYPE = 0
CLASSIFICATION_TYPE = U
NORAD_CAT_ID   = 67796
ELEMENT_SET_NO = 999
REV_AT_EPOCH   = 42
BSTAR          = .19659974E-3
MEAN_MOTION_DOT = .10277E-3
MEAN_MOTION_DDOT = 0

